[{"OBJECT_NAME":"STARLINK-5418","OBJECT_ID":"2022-177AJ","EPOCH":"2026-03-09T22:00:01.999584","MEAN_MOTION":15.12454162,"ECCENTRICITY":0.00010527,"INCLINATION":43.0003,"RA_OF_ASC_NODE":119.0381,"ARG_OF_PERICENTER":226.9765,"MEAN_ANOMALY":357.8621,"EPHEMERIS_TYPE":0,"CLASSIFICATION_TYPE":"U","NORAD_CAT_ID":54852,"ELEMENT_SET_NO":999,"REV_AT_EPOCH":573,"BSTAR":0.0027707485,"MEAN_MOTION_DOT":0.00049145,"MEAN_MOTION_DDOT":0},{"OBJECT_NAME":"AVUM R\/B","OBJECT_ID":"2021-105D","EPOCH":"2026-03-09T22:34:58.119744","MEAN_MOTION":15.31894528,"ECCENTRICITY":0.0086274,"INCLINATION":74.9219,"RA_OF_ASC_NODE":283.347,"ARG_OF_PERICENTER":214.1912,"MEAN_ANOMALY":145.3726,"EPHEMERIS_TYPE":0,"CLASSIFICATION_TYPE":"U","NORAD_CAT_ID":49467,"ELEMENT_SET_NO":999,"REV_AT_EPOCH":23867,"BSTAR":0.00030152064,"MEAN_MOTION_DOT":0.00010411,"MEAN_MOTION_DDOT":0}]
